[
  {
    "OBJECT_NAME": "STARLINK-4809",
    "OBJECT_ID": "2022-114AR",
    "EPOCH": "2025-05-17T12:06:03.993696",
    "MEAN_MOTION": 15.08841975,
    "ECCENTRICITY": 0.0001319,
    "INCLINATION": 53.2175,
    "RA_OF_ASC_NODE": 183.3234,
    "ARG_OF_PERICENTER": 77.249,
    "MEAN_ANOMALY": 282.865,
    "EPHEMERIS_TYPE": 0,
    "CLASSIFICATION_TYPE": "U",
    "NORAD_CAT_ID": 53857,
    "ELEMENT_SET_NO": 999,
    "REV_AT_EPOCH": 14826,
    "BSTAR": -0.0001114,
    "MEAN_MOTION_DOT": -2.06e-05,
    "MEAN_MOTION_DDOT": 0
  },
  {
    "OBJECT_NAME": "STARLINK-4798",
    "OBJECT_ID": "2022-114AS",
    "EPOCH": "2025-05-17T11:51:36.392544",
    "MEAN_MOTION": 15.08841318,
    "ECCENTRICITY": 0.0001285,
    "INCLINATION": 53.2165,
    "RA_OF_ASC_NODE": 173.9838,
    "ARG_OF_PERICENTER": 74.3087,
    "MEAN_ANOMALY": 285.8047,
    "EPHEMERIS_TYPE": 0,
    "CLASSIFICATION_TYPE": "U",
    "NORAD_CAT_ID": 53858,
    "ELEMENT_SET_NO": 999,
    "REV_AT_EPOCH": 14839,
    "BSTAR": 6.5961e-05,
    "MEAN_MOTION_DOT": 7.62e-06,
    "MEAN_MOTION_DDOT": 0
  },
  {
    "OBJECT_NAME": "STARLINK-4790",
    "OBJECT_ID": "2022-114AT",
    "EPOCH": "2025-05-17T20:11:35.226816",
    "MEAN_MOTION": 15.08831975,
    "ECCENTRICITY": 0.0001785,
    "INCLINATION": 53.2166,
    "RA_OF_ASC_NODE": 176.8823,
    "ARG_OF_PERICENTER": 126.8735,
    "MEAN_ANOMALY": 233.2421,
    "EPHEMERIS_TYPE": 0,
    "CLASSIFICATION_TYPE": "U",
    "NORAD_CAT_ID": 53859,
    "ELEMENT_SET_NO": 999,
    "REV_AT_EPOCH": 14784,
    "BSTAR": 0.00024965,
    "MEAN_MOTION_DOT": 3.687e-05,
    "MEAN_MOTION_DDOT": 0
  },
  {
    "OBJECT_NAME": "STARLINK-4799",
    "OBJECT_ID": "2022-114AU",
    "EPOCH": "2025-05-17T11:40:59.470752",
    "MEAN_MOTION": 15.08841159,
    "ECCENTRICITY": 0.0001266,
    "INCLINATION": 53.2165,
    "RA_OF_ASC_NODE": 173.9421,
    "ARG_OF_PERICENTER": 88.4261,
    "MEAN_ANOMALY": 271.6876,
    "EPHEMERIS_TYPE": 0,
    "CLASSIFICATION_TYPE": "U",
    "NORAD_CAT_ID": 53860,
    "ELEMENT_SET_NO": 999,
    "REV_AT_EPOCH": 14815,
    "BSTAR": 8.1069e-05,
    "MEAN_MOTION_DOT": 1.003e-05,
    "MEAN_MOTION_DDOT": 0
  },
  {
    "OBJECT_NAME": "STARLINK-4781",
    "OBJECT_ID": "2022-114AV",
    "EPOCH": "2025-05-17T19:43:15.213504",
    "MEAN_MOTION": 15.08830326,
    "ECCENTRICITY": 0.0001172,
    "INCLINATION": 53.2162,
    "RA_OF_ASC_NODE": 172.4824,
    "ARG_OF_PERICENTER": 91.9748,
    "MEAN_ANOMALY": 268.1378,
    "EPHEMERIS_TYPE": 0,
    "CLASSIFICATION_TYPE": "U",
    "NORAD_CAT_ID": 53861,
    "ELEMENT_SET_NO": 999,
    "REV_AT_EPOCH": 14790,
    "BSTAR": 7.8811e-05,
    "MEAN_MOTION_DOT": 9.66e-06,
    "MEAN_MOTION_DDOT": 0
  },
  {
    "OBJECT_NAME": "STARLINK-4788",
    "OBJECT_ID": "2022-114AX",
    "EPOCH": "2025-05-17T11:30:22.937760",
    "MEAN_MOTION": 15.08844223,
    "ECCENTRICITY": 0.0001345,
    "INCLINATION": 53.2169,
    "RA_OF_ASC_NODE": 173.8976,
    "ARG_OF_PERICENTER": 77.0898,
    "MEAN_ANOMALY": 283.0244,
    "EPHEMERIS_TYPE": 0,
    "CLASSIFICATION_TYPE": "U",
    "NORAD_CAT_ID": 53863,
    "ELEMENT_SET_NO": 999,
    "REV_AT_EPOCH": 14839,
    "BSTAR": -2.1545e-05,
    "MEAN_MOTION_DOT": -6.31e-06,
    "MEAN_MOTION_DDOT": 0
  },
  {
    "OBJECT_NAME": "STARLINK-4779",
    "OBJECT_ID": "2022-114AY",
    "EPOCH": "2025-05-17T08:51:18.674496",
    "MEAN_MOTION": 15.08831436,
    "ECCENTRICITY": 0.0001257,
    "INCLINATION": 53.2159,
    "RA_OF_ASC_NODE": 173.9204,
    "ARG_OF_PERICENTER": 82.5736,
    "MEAN_ANOMALY": 277.5399,
    "EPHEMERIS_TYPE": 0,
    "CLASSIFICATION_TYPE": "U",
    "NORAD_CAT_ID": 53864,
    "ELEMENT_SET_NO": 999,
    "REV_AT_EPOCH": 14838,
    "BSTAR": 2.6846e-05,
    "MEAN_MOTION_DOT": 1.39e-06,
    "MEAN_MOTION_DDOT": 0
  },
  {
    "OBJECT_NAME": "STARLINK-4762",
    "OBJECT_ID": "2022-114BA",
    "EPOCH": "2025-05-17T10:13:34.467168",
    "MEAN_MOTION": 15.08839747,
    "ECCENTRICITY": 0.0001274,
    "INCLINATION": 53.2158,
    "RA_OF_ASC_NODE": 154.3039,
    "ARG_OF_PERICENTER": 80.1091,
    "MEAN_ANOMALY": 280.0045,
    "EPHEMERIS_TYPE": 0,
    "CLASSIFICATION_TYPE": "U",
    "NORAD_CAT_ID": 53866,
    "ELEMENT_SET_NO": 999,
    "REV_AT_EPOCH": 14866,
    "BSTAR": 5.5144e-05,
    "MEAN_MOTION_DOT": 5.9e-06,
    "MEAN_MOTION_DDOT": 0
  },
  {
    "OBJECT_NAME": "STARLINK-4793",
    "OBJECT_ID": "2022-114BB",
    "EPOCH": "2025-05-17T11:31:42.417984",
    "MEAN_MOTION": 15.08852029,
    "ECCENTRICITY": 9.03e-05,
    "INCLINATION": 53.2159,
    "RA_OF_ASC_NODE": 163.9161,
    "ARG_OF_PERICENTER": 87.6028,
    "MEAN_ANOMALY": 272.5067,
    "EPHEMERIS_TYPE": 0,
    "CLASSIFICATION_TYPE": "U",
    "NORAD_CAT_ID": 53867,
    "ELEMENT_SET_NO": 999,
    "REV_AT_EPOCH": 14853,
    "BSTAR": 0.00013179,
    "MEAN_MOTION_DOT": 1.811e-05,
    "MEAN_MOTION_DDOT": 0
  },
  {
    "OBJECT_NAME": "STARLINK-4789",
    "OBJECT_ID": "2022-114BC",
    "EPOCH": "2025-05-17T07:55:44.262624",
    "MEAN_MOTION": 15.08830542,
    "ECCENTRICITY": 0.0001198,
    "INCLINATION": 53.2155,
    "RA_OF_ASC_NODE": 154.4407,
    "ARG_OF_PERICENTER": 80.8069,
    "MEAN_ANOMALY": 279.3058,
    "EPHEMERIS_TYPE": 0,
    "CLASSIFICATION_TYPE": "U",
    "NORAD_CAT_ID": 53868,
    "ELEMENT_SET_NO": 999,
    "REV_AT_EPOCH": 14811,
    "BSTAR": 2.8478e-05,
    "MEAN_MOTION_DOT": 1.65e-06,
    "MEAN_MOTION_DDOT": 0
  },
  {
    "OBJECT_NAME": "STARLINK-4810",
    "OBJECT_ID": "2022-114BD",
    "EPOCH": "2025-05-17T12:14:02.852736",
    "MEAN_MOTION": 15.08846319,
    "ECCENTRICITY": 0.0001255,
    "INCLINATION": 53.2157,
    "RA_OF_ASC_NODE": 163.3903,
    "ARG_OF_PERICENTER": 80.1669,
    "MEAN_ANOMALY": 279.9465,
    "EPHEMERIS_TYPE": 0,
    "CLASSIFICATION_TYPE": "U",
    "NORAD_CAT_ID": 53869,
    "ELEMENT_SET_NO": 999,
    "REV_AT_EPOCH": 14854,
    "BSTAR": 9.0896e-05,
    "MEAN_MOTION_DOT": 1.159e-05,
    "MEAN_MOTION_DDOT": 0
  },
  {
    "OBJECT_NAME": "STARLINK-4732",
    "OBJECT_ID": "2022-114BE",
    "EPOCH": "2025-05-17T08:01:02.675136",
    "MEAN_MOTION": 15.08837444,
    "ECCENTRICITY": 0.0001149,
    "INCLINATION": 53.216,
    "RA_OF_ASC_NODE": 154.4466,
    "ARG_OF_PERICENTER": 79.7016,
    "MEAN_ANOMALY": 280.4105,
    "EPHEMERIS_TYPE": 0,
    "CLASSIFICATION_TYPE": "U",
    "NORAD_CAT_ID": 53870,
    "ELEMENT_SET_NO": 999,
    "REV_AT_EPOCH": 14865,
    "BSTAR": 1.2279e-05,
    "MEAN_MOTION_DOT": -9.2e-07,
    "MEAN_MOTION_DDOT": 0
  },
  {
    "OBJECT_NAME": "STARLINK-4740",
    "OBJECT_ID": "2022-114BF",
    "EPOCH": "2025-05-17T18:26:17.579328",
    "MEAN_MOTION": 15.08840811,
    "ECCENTRICITY": 0.0001337,
    "INCLINATION": 53.2156,
    "RA_OF_ASC_NODE": 152.1808,
    "ARG_OF_PERICENTER": 86.5036,
    "MEAN_ANOMALY": 273.6109,
    "EPHEMERIS_TYPE": 0,
    "CLASSIFICATION_TYPE": "U",
    "NORAD_CAT_ID": 53871,
    "ELEMENT_SET_NO": 999,
    "REV_AT_EPOCH": 14818,
    "BSTAR": 5.102e-05,
    "MEAN_MOTION_DOT": 5.24e-06,
    "MEAN_MOTION_DDOT": 0
  },
  {
    "OBJECT_NAME": "STARLINK-5028",
    "OBJECT_ID": "2022-119A",
    "EPOCH": "2025-05-17T11:30:24.501600",
    "MEAN_MOTION": 15.08842851,
    "ECCENTRICITY": 0.0001199,
    "INCLINATION": 53.2157,
    "RA_OF_ASC_NODE": 214.0905,
    "ARG_OF_PERICENTER": 91.0633,
    "MEAN_ANOMALY": 269.0497,
    "EPHEMERIS_TYPE": 0,
    "CLASSIFICATION_TYPE": "U",
    "NORAD_CAT_ID": 53886,
    "ELEMENT_SET_NO": 999,
    "REV_AT_EPOCH": 14696,
    "BSTAR": 5.8057e-05,
    "MEAN_MOTION_DOT": 6.36e-06,
    "MEAN_MOTION_DDOT": 0
  }
]