STARLINK-4809           
1 53857U 22114AR  25137.50421289 -.00002060  00000+0 -11140-3 0  9996
2 53857  53.2175 183.3234 0001319  77.2490 282.8650 15.08841975148260
STARLINK-4798           
1 53858U 22114AS  25137.49417121  .00000762  00000+0  65961-4 0  9991
2 53858  53.2165 173.9838 0001285  74.3087 285.8047 15.08841318148395
STARLINK-4790           
1 53859U 22114AT  25137.84137994  .00003687  00000+0  24965-3 0  9995
2 53859  53.2166 176.8823 0001785 126.8735 233.2421 15.08831975147841
STARLINK-4799           
1 53860U 22114AU  25137.48679943  .00001003  00000+0  81069-4 0  9991
2 53860  53.2165 173.9421 0001266  88.4261 271.6876 15.08841159148155
STARLINK-4781           
1 53861U 22114AV  25137.82170386  .00000966  00000+0  78811-4 0  9995
2 53861  53.2162 172.4824 0001172  91.9748 268.1378 15.08830326147903
STARLINK-4788           
1 53863U 22114AX  25137.47943215 -.00000631  00000+0 -21545-4 0  9990
2 53863  53.2169 173.8976 0001345  77.0898 283.0244 15.08844223148391
STARLINK-4779           
1 53864U 22114AY  25137.36896614  .00000139  00000+0  26846-4 0  9999
2 53864  53.2159 173.9204 0001257  82.5736 277.5399 15.08831436148380
STARLINK-4762           
1 53866U 22114BA  25137.42609337  .00000590  00000+0  55144-4 0  9996
2 53866  53.2158 154.3039 0001274  80.1091 280.0045 15.08839747148668
STARLINK-4793           
1 53867U 22114BB  25137.48035206  .00001811  00000+0  13179-3 0  9999
2 53867  53.2159 163.9161 0000903  87.6028 272.5067 15.08852029148536
STARLINK-4789           
1 53868U 22114BC  25137.33037341  .00000165  00000+0  28478-4 0  9996
2 53868  53.2155 154.4407 0001198  80.8069 279.3058 15.08830542148113
STARLINK-4810           
1 53869U 22114BD  25137.50975524  .00001159  00000+0  90896-4 0  9997
2 53869  53.2157 163.3903 0001255  80.1669 279.9465 15.08846319148543
STARLINK-4732           
1 53870U 22114BE  25137.33405874 -.00000092  00000+0  12279-4 0  9991
2 53870  53.2160 154.4466 0001149  79.7016 280.4105 15.08837444148655
STARLINK-4740           
1 53871U 22114BF  25137.76825902  .00000524  00000+0  51020-4 0  9993
2 53871  53.2156 152.1808 0001337  86.5036 273.6109 15.08840811148181
STARLINK-5028           
1 53886U 22119A   25137.47945025  .00000636  00000+0  58057-4 0  9992
2 53886  53.2157 214.0905 0001199  91.0633 269.0497 15.08842851146963
